{
"type": "FeatureCollection",
"name": "response_zones",
"crs": { "type": "name", "properties": { "name": "urn:ogc:def:crs:OGC:1.3:CRS84" } },
"features": [
{ "type": "Feature", "properties": { "response_zone_id": "Z000001", "priority_level": "CRITICAL", "critical_places_count": 2, "recommended_team_count": 3, "nearest_base_id": "B000001", "zone_risk_score": 0.87 }, "geometry": { "type": "Polygon", "coordinates": [ [ [ 80.224364794250221, 13.095041802655476 ], [ 80.224629809472987, 13.095595434578515 ], [ 80.225787314750647, 13.097501632773628 ], [ 80.227129875934068, 13.099287435558422 ], [ 80.228644565509811, 13.100935642043705 ], [ 80.23031679714579, 13.10243037629078 ], [ 80.232130466128183, 13.103757240313668 ], [ 80.234068104466331, 13.104903452850575 ], [ 80.236111049171257, 13.105857972563873 ], [ 80.238239622085445, 13.10661160447787 ], [ 80.240433319528279, 13.107157088625259 ], [ 80.242671009925573, 13.107489170044939 ], [ 80.244931137513547, 13.107604649453938 ], [ 80.247191930147679, 13.107502414102912 ], [ 80.249431609207065, 13.10718344851646 ], [ 80.251628599563915, 13.106650825013727 ], [ 80.253761737587055, 13.105909674100644 ], [ 80.255810475167891, 13.10496713501969 ], [ 80.257755077795579, 13.103832286934887 ], [ 80.259576814766959, 13.102516061417308 ], [ 80.261258139693226, 13.101031137076722 ], [ 80.262782859560332, 13.0993918173578 ], [ 80.264136290712187, 13.097613892681672 ], [ 80.265305400252871, 13.095714488264731 ], [ 80.266278931506662, 13.093711899084498 ], [ 80.267047512329626, 13.091625413586204 ], [ 80.267603745233487, 13.089475127831733 ], [ 80.267942278459174, 13.087281751884431 ], [ 80.268059857321973, 13.085066410297337 ], [ 80.267955355341229, 13.082850438628716 ], [ 80.267629784863502, 13.080655177946063 ], [ 80.267086287085036, 13.078501769298578 ], [ 80.266330101578703, 13.076410950137412 ], [ 80.26536851562733, 13.074402854643402 ], [ 80.264210793859178, 13.072496819883781 ], [ 80.262868088870306, 13.070711199662247 ], [ 80.261353333700526, 13.069063187852194 ], [ 80.259681117202689, 13.067568652911065 ], [ 80.257867543508851, 13.066241985165616 ], [ 80.255930076947806, 13.06509595833481 ], [ 80.255633110952658, 13.064957217127994 ], [ 80.255368053565007, 13.064403613727867 ], [ 80.254210453372934, 13.062497539308909 ], [ 80.252867873206412, 13.060711872520272 ], [ 80.251353244906255, 13.059063807687325 ], [ 80.249681156107769, 13.057569213780864 ], [ 80.247867709718406, 13.056242481697373 ], [ 80.245930368846999, 13.0550963857763 ], [ 80.243887788677327, 13.054141960883987 ], [ 80.241759636903424, 13.053388396243705 ], [ 80.239566404452063, 13.052842947030598 ], [ 80.237329208310385, 13.052510864579261 ], [ 80.235069588350811, 13.052395345873203 ], [ 80.232809300103085, 13.0524975028002 ], [ 80.230570105460444, 13.052816351467982 ], [ 80.228373563327494, 13.053348821682226 ], [ 80.226240822217022, 13.054089786495467 ], [ 80.224192416784817, 13.055032111543095 ], [ 80.222248070254054, 13.056166723692742 ], [ 80.220426504624996, 13.057482698348137 ], [ 80.218745260491815, 13.058967364569577 ], [ 80.217220528197174, 13.060606427001929 ], [ 80.21586699194755, 13.062384103439815 ], [ 80.214697688389236, 13.06428327670919 ], [ 80.213723881006885, 13.066285659406816 ], [ 80.212954951556526, 13.068371969915246 ], [ 80.212398309581886, 13.070522118002113 ], [ 80.212059320890532, 13.072715398219946 ], [ 80.211941255684977, 13.074930689247033 ], [ 80.212045256855632, 13.077146657252037 ], [ 80.212370328749117, 13.079341961325696 ], [ 80.212913346528822, 13.081495459002095 ], [ 80.213669086046238, 13.083586409890483 ], [ 80.21463027394401, 13.085594675455797 ], [ 80.215787657516188, 13.087500913022543 ], [ 80.217130093660288, 13.089286762131266 ], [ 80.218644656070182, 13.090935021450143 ], [ 80.220316759642714, 13.092429814534382 ], [ 80.222130300902649, 13.093756742833222 ], [ 80.22406781309536, 13.09490302446676 ], [ 80.224364794250221, 13.095041802655476 ] ] ] } }
]
}
