{
  "type": "FeatureCollection",
  "name": "roads",
  "crs": {
    "type": "name",
    "properties": {
      "name": "EPSG:4326"
    }
  },
  "features": [
    {
      "type": "Feature",
      "properties": {
        "road_id": "R000001",
        "highway_type": "primary",
        "road_length_m": 520.0
      },
      "geometry": {
        "type": "LineString",
        "coordinates": [
          [
            80.2,
            13.05
          ],
          [
            80.22,
            13.06
          ],
          [
            80.24,
            13.07
          ]
        ]
      }
    },
    {
      "type": "Feature",
      "properties": {
        "road_id": "R000002",
        "highway_type": "secondary",
        "road_length_m": 410.0
      },
      "geometry": {
        "type": "LineString",
        "coordinates": [
          [
            80.22,
            13.06
          ],
          [
            80.23,
            13.08
          ],
          [
            80.25,
            13.09
          ]
        ]
      }
    },
    {
      "type": "Feature",
      "properties": {
        "road_id": "R000003",
        "highway_type": "tertiary",
        "road_length_m": 350.0
      },
      "geometry": {
        "type": "LineString",
        "coordinates": [
          [
            80.25,
            13.09
          ],
          [
            80.26,
            13.11
          ],
          [
            80.28,
            13.12
          ]
        ]
      }
    }
  ]
}