{
"type": "FeatureCollection",
"name": "affected_roads",
"crs": { "type": "name", "properties": { "name": "urn:ogc:def:crs:OGC:1.3:CRS84" } },
"features": [
{ "type": "Feature", "properties": { "road_id": "R000001", "flood_overlap_pct": 62.5, "flood_risk_score": 0.87, "highway_type": "primary", "road_length_m": 520.0 }, "geometry": { "type": "LineString", "coordinates": [ [ 80.2, 13.05 ], [ 80.22, 13.06 ], [ 80.24, 13.07 ] ] } },
{ "type": "Feature", "properties": { "road_id": "R000002", "flood_overlap_pct": 75.15, "flood_risk_score": 0.87, "highway_type": "secondary", "road_length_m": 410.0 }, "geometry": { "type": "LineString", "coordinates": [ [ 80.22, 13.06 ], [ 80.23, 13.08 ], [ 80.25, 13.09 ] ] } }
]
}
